LEMUR-2-DEMBITZ         
1 42842U 17042T   26068.47492167  .00020231  00000+0  76561-3 0  9991
2 42842  97.3807 250.9241 0006961  17.1421 343.0051 15.26947128473114
STARLINK-36450          
1 67317U 26002N   26068.42039134  .00031574  00000+0  11516-2 0  9997
2 67317  43.0057 327.1425 0000824 300.9814  59.0957 15.27591291 11197
